S-NET B                 
1 43187U 18014H   22325.71752383  .00001420  00000+0  12323-3 0  9997
2 43187  97.6459 228.3294 0011085 123.9944 236.2334 14.98567015262461
S-NET A                 
1 43188U 18014J   22325.71782847  .00001418  00000+0  12308-3 0  9996
2 43188  97.6463 228.4024 0011077 124.1310 236.0965 14.98567184262465
S-NET C                 
1 43189U 18014K   22325.71886497  .00001479  00000+0  12818-3 0  9996
2 43189  97.6456 228.3170 0011062 124.3334 235.8937 14.98562133261016
FENGMANIU-1 (FMN-1)     
1 43192U 18015A   22325.95976662  .00054408  00000+0  94421-3 0  9991
2 43192  97.5506 116.6385 0009541 192.3466 284.8338 15.50637401267736
SHAONIAN XING           
1 43199U 18015H   22325.94705120  .00024595  00000+0  60111-3 0  9999
2 43199  97.5315 109.8888 0011885 197.2006 280.7259 15.40741987267631
LUOJIA-1 01             
1 43485U 18048B   22325.79567813  .00001164  00000+0  16923-3 0  9990
2 43485  97.9245  44.4770 0012247  56.1842 304.0525 14.77742211241103
SURFSAT                 
1 43614U 18070B   22325.84315602  .00107369  00000+0  74799-3 0  9991
2 43614  93.0021 166.0610 0009075  95.2632 264.9677 15.73989072235634
CP7 (DAVE)              
1 43615U 18070C   22325.55771000  .00074554  00000+0  62171-3 0  9998
2 43615  93.0022 165.5547 0009785 101.3934 258.8436 15.69788728235524
CZ-4B R/B               
1 43656U 18081B   22325.67045521  .00000088  00000+0  43880-4 0  9998
2 43656  99.4203 112.4059 0208793  52.8918 309.1143 14.30658691212837
CUBEBEL-1 (BSUSAT-1)    
1 43666U 18083E   22325.91606554  .00011390  00000+0  43853-3 0  9994
2 43666  97.4081 353.0085 0013495 131.9588 313.8184 15.26444328225474
CHANGSHAGAOXIN (TY 4-01)
1 43669U 18083H   22325.93754450  .00009445  00000+0  38477-3 0  9992
2 43669  97.4039 348.5165 0010381 129.4293 325.3243 15.24642587225271
TEN-KOH                 
1 43677U 18084G   22325.82172010  .00001271  00000+0  13223-3 0  9997
2 43677  97.9861  97.5559 0016829 111.4234 248.8781 14.91596098221130
DIWATA-2B               
1 43678U 18084H   22325.81987995  .00001458  00000+0  14770-3 0  9998
2 43678  97.9921 101.1759 0010991 122.3301 237.8982 14.92501529221320
STARS-AO                
1 43679U 18084J   22325.86138105  .00002854  00000+0  27045-3 0  9995
2 43679  97.9958 103.5809 0009805 126.3054 233.9073 14.94386841221445
AUTCUBE 2               
1 43681U 18084K   22325.61619541  .00001946  00000+0  18996-3 0  9995
2 43681  97.9926 101.7330 0010281 121.7063 238.5160 14.93597327221306
IRVINE01                
1 43693U 18088D   22325.65446484  .00092930  00000+0  12828-2 0  9990
2 43693  85.0245 203.1586 0002441 182.7910 177.3338 15.56853023224485
ES'HAIL 2               
1 43700U 18090A   22325.87271573  .00000168  00000+0  00000+0 0  9999
2 43700   0.0180 309.5776 0001035 311.5382 139.6888  1.00270118 14608
FACSAT-1                
1 43721U 18096C   22325.89042259  .00027266  00000+0  59811-3 0  9993
2 43721  97.3390  46.1463 0011673 200.2968 271.2938 15.43966245222192
CENTAURI-2              
1 43722U 18096D   22325.79339841  .00050981  00000+0  87032-3 0  9995
2 43722  97.3443  49.2241 0010274 198.5948 161.4930 15.51108699222353
3CAT-1                  
1 43728U 18096K   22325.74267963  .00047095  00000+0  81877-3 0  9994
2 43728  97.3467  49.9284 0010074 200.9819 159.1021 15.50613452222387
INNOSAT-2               
1 43738U 18096V   22325.88641354  .00514077  10417-3  16260-2 0  9999
2 43738  97.3471  60.6588 0008076 233.5724 265.0196 15.91202817223066
REAKTOR HELLO WORLD     
1 43743U 18096AA  22325.80467704  .00017076  00000+0  44671-3 0  9990
2 43743  97.3424  45.3428 0012989 209.2509 150.8010 15.38721344222115
ELYSIUM STAR 2 & LFF    
1 43760U 18099C   22325.82795378  .00005321  00000+0  42663-3 0  9994
2 43760  97.6140  31.0195 0010107  97.2874 262.9499 15.00483316216702
2018-099D               
1 43761U 18099D   22325.84828431  .00001187  00000+0  10976-3 0  9992
2 43761  97.6043  28.2559 0015458 101.4538 258.8398 14.96314931216551
AISTECHSAT 2            
1 43768U 18099L   22325.74880880  .00001401  00000+0  12834-3 0  9998
2 43768  97.6000  26.5853 0012509  99.6645 260.5991 14.96436422216201
FOX-1CLIFF (AO-95)      
1 43770U 18099N   22325.75683274  .00002058  00000+0  18202-3 0  9994
2 43770  97.6039  27.9448 0015042 106.2595 254.0284 14.97308717216541
RANGE-A                 
1 43772U 18099Q   22325.67449318  .00004379  00000+0  37281-3 0  9992
2 43772  97.6172  29.9425 0015361  94.4609 265.8368 14.98213297216560
RANGE-B                 
1 43773U 18099R   22325.86554341  .00002315  00000+0  20746-3 0  9993
2 43773  97.5957  26.6574 0014831  95.0073 265.2842 14.96669588216537
2018-099T               
1 43775U 18099T   22325.12933201  .00002012  00000+0  18145-3 0  9994
2 43775  97.6036  27.3183 0015868 101.4329 258.8676 14.96547885216436
MOVE-II                 
1 43780U 18099Y   22325.75618550  .00003869  00000+0  32179-3 0  9990
2 43780  97.6096  29.5149 0013350  98.4308 261.8429 14.99212231216617
SNUSAT-2                
1 43782U 18099AA  22325.85594772  .00003040  00000+0  26580-3 0  9992
2 43782  97.6036  28.5411 0013830  94.0457 266.2347 14.97410042216586
SNUGLITE                
1 43784U 18099AC  22325.86753592  .00003531  00000+0  30533-3 0  9990
2 43784  97.6008  28.1763 0016338  99.5692 260.7378 14.97718478216611
ITASAT 1                
1 43786U 18099AE  22325.87361624  .00002808  00000+0  24616-3 0  9995
2 43786  97.6076  29.0537 0016465  99.2459 261.0627 14.97343158216605
KAZSCISAT-1             
1 43787U 18099AF  22325.74403366  .00004004  00000+0  33397-3 0  9998
2 43787  97.6015  28.2934 0015242  92.2810 268.0159 14.99054727216652
EAGLET-I                
1 43790U 18099AJ  22325.75658378  .00001232  00000+0  11077-3 0  9999
2 43790  97.6059  29.4836 0014309 101.8722 258.4105 14.97372075216325
ESEO                    
1 43792U 18099AL  22325.76127320  .00000604  00000+0  57978-4 0  9993
2 43792  97.6004  28.4525 0014367 100.7226 259.5615 14.96567706216359
CSIM-FD                 
1 43793U 18099AM  22325.79296573  .00004937  00000+0  40233-3 0  9992
2 43793  97.6079  30.6113 0015208  98.4538 261.8410 14.99840849216459
ASTROCAST 0.1           
1 43798U 18099AS  22325.82755433  .00003384  00000+0  28483-3 0  9994
2 43798  97.6083  30.3087 0012779  78.4772 281.7885 14.98836238216671
JY1SAT (JO-97)          
1 43803U 18099AX  22325.69715182  .00002583  00000+0  22296-3 0  9999
2 43803  97.6026  28.6992 0015272  98.5832 261.7122 14.98030837216607
SUOMI-100               
1 43804U 18099AY  22325.86109819  .00003468  00000+0  29870-3 0  9991
2 43804  97.6022  28.7427 0016363  99.2406 261.0668 14.97879557216635
AL-FARABI 2             
1 43805U 18099AZ  22325.91055061  .00003381  00000+0  28525-3 0  9997
2 43805  97.6038  29.4813 0014964  99.0760 261.2134 14.98723585216670
CENTAURI-1              
1 43809U 18099BD  22325.86438712  .00002852  00000+0  24954-3 0  9997
2 43809  97.6038  29.0019 0016554 100.3742 259.9347 14.97402564216323
CHOMPTT                 
1 43855U 18104G   22325.46947434  .00010168  00000+0  34238-3 0  9992
2 43855  85.0307 306.2637 0015334  27.0695 333.1347 15.30497931218717
DAVINCI                 
1 43857U 18104J   22325.92286159  .00077789  00000+0  11856-2 0  9997
2 43857  85.0172 301.3418 0010607  60.5088 299.7228 15.54136825219150
UWE-4                   
1 43880U 18111E   22325.71442211  .00002461  00000+0  20672-3 0  9993
2 43880  97.6577 229.2569 0011199 144.7043 215.4924 14.99191085213252
ZACUBE-2                
1 43907U 18111AH  22325.92172821  .00009447  00000+0  32048-3 0  9994
2 43907  97.1661 206.6676 0016573 236.8679 254.6109 15.30596572217359
MICRODRAGON             
1 43935U 19003D   22325.85372374  .00006981  00000+0  25760-3 0  9996
2 43935  97.1239 348.9469 0015362 342.4460  17.6247 15.27961452213713
AOBA VELOX-IV           
1 43940U 19003J   22325.89220090  .00042819  00000+0  82474-3 0  9998
2 43940  97.1104 357.8793 0011431 297.1062  62.9023 15.47686273214382
M6P                     
1 44109U 19018AF  22325.76389109  .00024041  00000+0  47495-3 0  9996
2 44109  97.3891  52.0806 0039413 277.6520  82.0254 15.46272048203709
FORMOSAT 7-4            
1 44350U 19036M   22325.84481558  .00004749  00000+0  25888-3 0  9999
2 44350  24.0015  20.2123 0005874 160.6209 199.4519 15.10635868187285
PAINANI 1               
1 44365U 19037A   22325.86141409  .00123625  00000+0  77881-3 0  9991
2 44365  44.9892 186.3284 0011150 209.5343 150.4929 15.75520855191842
METEOR-M2 2             
1 44387U 19038A   22325.85629313  .00000044  00000+0  38735-4 0  9995
2 44387  98.7452 285.5299 0001610 137.8902 222.2410 14.23731543175808
VDNH-80                 
1 44392U 19038G   22325.87022899  .00009843  00000+0  45773-3 0  9994
2 44392  97.6543 297.4426 0016639 313.5892 101.7035 15.20052194186739
D-STAR ONE (LIGHTSAT)   
1 44393U 19038H   22325.66612122  .00010555  00000+0  48829-3 0  9993
2 44393  97.6545 297.1586 0016658 314.7066  45.2811 15.20211383186891
AMGU-1 (AMURSAT)        
1 44394U 19038J   22325.89855843  .00011270  00000+0  51367-3 0  9994
2 44394  97.6527 297.4030 0016308 314.3661  45.6237 15.20712837186939
DOT-1                   
1 44399U 19038P   22325.88108432  .00006971  00000+0  35368-3 0  9998
2 44399  97.6598 295.6829 0020720 320.5030  39.4691 15.17072430186793
SOKRAT                  
1 44404U 19038U   22325.84951954  .00011032  00000+0  50668-3 0  9990
2 44404  97.6534 296.9571 0016671 316.3038  43.6875 15.20450023186905
LUCKY-7                 
1 44406U 19038W   22325.44001542  .00006522  00000+0  32572-3 0  9999
2 44406  97.6582 295.6975 0020127 313.4979  46.4580 15.17660229186751
D-STAR ONE (EXOCONNECT) 
1 44410U 19038AA  22325.85598024  .00019499  00000+0  77547-3 0  9993
2 44410  97.6466 298.5546 0014101 311.0700  48.9318 15.25236568187036
